COSMOS 2242             
1 22626U 93024A   26064.62416765  .00002493  00000+0  21662-3 0  9998
2 22626  82.5151 270.6064 0015446 323.5049  36.5119 14.96528853779787
SL-16 R/B               
1 22803U 93059B   26064.24202986 -.00000059  00000+0 -54664-5 0  9997
2 22803  70.9922  20.5044 0018748 222.9016 137.0647 14.17232284678903
ARIANE 40 R/B           
1 22830U 93061H   26064.71823323  .00000289  00000+0  12174-3 0  9997
2 22830  98.4923 133.6840 0009620 298.2066  61.8146 14.32858647693537
COSMOS 2278             
1 23087U 94023A   26064.70791325  .00000267  00000+0  16398-3 0  9994
2 23087  71.0546 183.4267 0007763  21.1565 338.9877 14.14377027644240
SL-16 R/B               
1 23088U 94023B   26064.47339707 -.00000153  00000+0 -54485-4 0  9997
2 23088  70.9986  79.7425 0005672 289.7929  70.2581 14.15013187645494
SL-16 R/B               
1 23343U 94074B   26064.67778606  .00000696  00000+0  99908-4 0  9993
2 23343  97.7114  95.6579 0005501 225.8356 249.4636 14.79402865686650
SL-16 R/B               
1 23405U 94077B   26064.24466604 -.00000217  00000+0 -86331-4 0  9997
2 23405  70.9851   1.8393 0003348 218.5508 141.5376 14.15561763615601
ARIANE 40+ R/B          
1 23561U 95021B   26064.72621990  .00000423  00000+0  14889-3 0  9999
2 23561  98.4505 136.2624 0007473 147.1612 323.9586 14.39769270618679
SL-16 R/B               
1 23705U 95058B   26064.74612336  .00000120  00000+0  85534-4 0  9995
2 23705  71.0213 188.5336 0010969 132.7336 227.4712 14.15493138567290
SL-16 R/B               
1 24298U 96051B   26064.70426243  .00000123  00000+0  92990-4 0  9990
2 24298  70.7599 183.6736 0015422 154.0650 206.1246 14.12414504521086
ORBVIEW 2 (SEASTAR)     
1 24883U 97037A   26064.44486965  .00000467  00000+0  17872-3 0  9999
2 24883  98.8558 228.6443 0003156  80.3835 279.7706 14.35491436507865
SL-16 R/B               
1 25400U 98043G   26064.73228764  .00000091  00000+0  56835-4 0  9992
2 25400  98.8249  18.0679 0010400  31.3071 328.8725 14.26048615438427
SL-16 R/B               
1 25407U 98045B   26064.68835711 -.00000110  00000+0 -31582-4 0  9997
2 25407  71.0114 189.9878 0006504  14.1090 346.0214 14.16189129426536
ISS (ZARYA)             
1 25544U 98067A   26064.70570909  .00008837  00000+0  17141-3 0  9997
2 25544  51.6315  92.0530 0008143 160.3826 199.7477 15.48463204555718
CZ-4B R/B               
1 25732U 99025C   26064.72394169  .00000077  00000+0  57910-4 0  9992
2 25732  98.6634 109.0993 0036967 358.0685 110.0549 14.18264521387602
OKEAN-O                 
1 25860U 99039A   26064.73154934  .00000953  00000+0  13182-3 0  9999
2 25860  97.9449 124.6631 0001380  70.3542 289.7819 14.80328292433802
SL-16 R/B               
1 25861U 99039B   26064.71514196  .00000837  00000+0  11296-3 0  9993
2 25861  97.9973 123.8176 0013431 270.3696  89.5978 14.81725530436275
